STARLINK-31008          
1 58636U 23203U   26068.40256636 -.00001492  00000+0 -44708-4 0  9996
2 58636  43.0042  69.0447 0001531 259.8871 100.1808 15.27575423124740
NUSAT-48 (HENRIETTA LE*)
1 60498U 24149AG  26068.80506098  .00012988  00000+0  45212-3 0  9999
2 60498  97.3923 150.8264 0002754 263.3026  96.7901 15.29812597 86946
